NORAD_CAT_ID,OBJECT_NAME,OBJECT_TYPE,EPOCH,MEAN_MOTION,ECCENTRICITY,INCLINATION,RA_OF_ASC_NODE,ARG_OF_PERICENTER,MEAN_ANOMALY,BSTAR,MEAN_MOTION_DOT,MEAN_MOTION_DDOT,TLE_LINE0,TLE_LINE1,TLE_LINE2,SEMIMAJOR_AXIS,PERIOD,APOGEE,PERIGEE,DECAYED
54803.0,STARLINK-5430,PAYLOAD,2023-12-29 09:13:08,15.08835438,0.0001655,53.2191,40.9889,102.0576,258.0601,0.00013085,1.795e-05,0.0,0 STARLINK-5430,1 54803U 22175AX  23363.38412478  .00001795  00000-0  13085-3 0  9993,2 54803  53.2191  40.9889 0001655 102.0576 258.0601 15.08835438 56793,6917.894,95.438,540.904,538.614,0.0
54803.0,STARLINK-5430,PAYLOAD,2023-12-30 02:42:22,15.08846581,0.0001612,53.2184,37.7177,96.563,263.5546,2.6481e-05,1.33e-06,0.0,0 STARLINK-5430,1 54803U 22175AX  23364.11275834  .00000133  00000-0  26481-4 0  9998,2 54803  53.2184  37.7177 0001612  96.5630 263.5546 15.08846581 56903,6917.86,95.437,540.84,538.61,0.0
54803.0,STARLINK-5430,PAYLOAD,2023-12-30 09:03:54,15.08849156,0.0001643,53.2186,36.5285,97.1333,262.9846,4.1962e-05,3.8e-06,0.0,0 STARLINK-5430,1 54803U 22175AX  23364.37771501  .00000380  00000-0  41962-4 0  9993,2 54803  53.2186  36.5285 0001643  97.1333 262.9846 15.08849156 59105,6917.852,95.437,540.854,538.581,0.0
54803.0,STARLINK-5430,PAYLOAD,2023-12-31 02:33:10,15.08831172,0.000163,53.2181,33.2579,92.3955,267.7223,1.0355e-05,-1.23e-06,0.0,0 STARLINK-5430,1 54803U 22175AX  23365.10636694 -.00000123  00000-0  10355-4 0  9996,2 54803  53.2181  33.2579 0001630  92.3955 267.7223 15.08831172 57056,6917.907,95.438,540.9,538.645,0.0
54803.0,STARLINK-5430,PAYLOAD,2023-12-31 07:19:19,15.08828221,0.0001644,53.2182,32.365,101.6359,258.4818,-2.3565e-05,-6.63e-06,0.0,0 STARLINK-5430,1 54803U 22175AX  23365.30509054 -.00000663  00000-0 -23565-4 0  9994,2 54803  53.2182  32.3650 0001644 101.6359 258.4818 15.08828221 59245,6917.916,95.438,540.919,538.644,0.0
54803.0,STARLINK-5430,PAYLOAD,2024-01-01 02:23:58,15.08820491,0.0002022,53.2179,28.7933,122.5541,237.5646,-0.00011124,-2.057e-05,0.0,0 STARLINK-5430,1 54803U 22175AX  24001.09998621 -.00002057  00000-0 -11124-3 0  9996,2 54803  53.2179  28.7933 0002022 122.5541 237.5646 15.08820491 57202,6917.94,95.439,541.204,538.406,0.0
54803.0,STARLINK-5430,PAYLOAD,2024-01-01 07:10:07,15.0883306,0.000147,53.218,27.9028,93.315,266.801,8.3827e-06,-1.55e-06,0.0,0 STARLINK-5430,1 54803U 22175AX  24001.29869862 -.00000155  00000-0  83827-5 0  9999,2 54803  53.2180  27.9028 0001470  93.3150 266.8010 15.08833060 57236,6917.902,95.438,540.784,538.75,0.0
54803.0,STARLINK-5430,PAYLOAD,2024-01-02 00:39:21,15.08840559,0.0001389,53.2184,24.6312,86.7753,273.3398,0.00021314,3.106e-05,0.0,0 STARLINK-5430,1 54803U 22175AX  24002.02733066  .00003106  00000-0  21314-3 0  9996,2 54803  53.2184  24.6312 0001389  86.7753 273.3398 15.08840559 57349,6917.879,95.438,540.705,538.783,0.0
54803.0,STARLINK-5430,PAYLOAD,2024-01-02 08:36:16,15.08857255,0.0001454,53.2178,23.1442,96.8659,263.2499,0.00054173,8.348e-05,0.0,0 STARLINK-5430,1 54803U 22175AX  24002.35852849  .00008348  00000-0  54173-3 0  9995,2 54803  53.2178  23.1442 0001454  96.8659 263.2499 15.08857255 57396,6917.828,95.436,540.698,538.687,0.0
54803.0,STARLINK-5430,PAYLOAD,2024-01-02 22:54:45,15.08851235,0.0001501,53.218,20.469,109.6776,250.4378,0.00014866,2.079e-05,0.0,0 STARLINK-5430,1 54803U 22175AX  24002.95468833  .00002079  00000-0  14866-3 0  9997,2 54803  53.2180  20.4690 0001501 109.6776 250.4378 15.08851235 57486,6917.846,95.437,540.749,538.673,0.0
54803.0,STARLINK-5430,PAYLOAD,2024-01-03 10:02:26,15.08848352,0.0001461,53.2173,18.3867,92.8169,267.299,5.2361e-05,5.46e-06,0.0,0 STARLINK-5430,1 54803U 22175AX  24003.41836764  .00000546  00000-0  52361-4 0  9991,2 54803  53.2173  18.3867 0001461  92.8169 267.2990 15.08848352 59714,6917.855,95.437,540.731,538.709,0.0
54803.0,STARLINK-5430,PAYLOAD,2024-01-04 08:17:50,15.08851262,0.0001465,53.2176,14.2242,81.9589,278.1569,1.2664e-06,-2.68e-06,0.0,0 STARLINK-5430,1 54803U 22175AX  24004.34572455 -.00000268  00000-0  12664-5 0  9993,2 54803  53.2176  14.2242 0001465  81.9589 278.1569 15.08851262 59850,6917.846,95.437,540.724,538.698,0.0
54803.0,STARLINK-5430,PAYLOAD,2024-01-05 04:57:51,15.08843924,0.0001484,53.2173,10.3587,87.865,272.2512,9.8107e-05,1.274e-05,0.0,0 STARLINK-5430,1 54803U 22175AX  24005.20684654  .00001274  00000-0  98107-4 0  9996,2 54803  53.2173  10.3587 0001484  87.8650 272.2512 15.08843924 57825,6917.868,95.437,540.76,538.707,0.0
54803.0,STARLINK-5430,PAYLOAD,2024-01-05 06:33:14,15.08846703,0.0001477,53.2178,10.0612,88.7544,271.3617,0.00010567,1.394e-05,0.0,0 STARLINK-5430,1 54803U 22175AX  24005.27308477  .00001394  00000-0  10567-3 0  9995,2 54803  53.2178  10.0612 0001477  88.7544 271.3617 15.08846703 59994,6917.86,95.437,540.747,538.703,0.0
54803.0,STARLINK-5430,PAYLOAD,2024-01-06 09:34:47,15.08843059,0.0001493,53.2177,5.0053,99.0528,261.0633,6.465e-05,7.41e-06,0.0,0 STARLINK-5430,1 54803U 22175AX  24006.39916568  .00000741  00000-0  64650-4 0  9993,2 54803  53.2177   5.0053 0001493  99.0528 261.0633 15.08843059 58007,6917.871,95.437,540.769,538.703,0.0
54803.0,STARLINK-5430,PAYLOAD,2024-01-07 03:04:02,15.08839404,0.0001481,53.2178,1.7334,95.5936,264.5225,-8.0087e-06,-4.15e-06,0.0,0 STARLINK-5430,1 54803U 22175AX  24007.12781029 -.00000415  00000-0 -80087-5 0  9990,2 54803  53.2178   1.7334 0001481  95.5936 264.5225 15.08839404 58110,6917.882,95.438,540.772,538.723,0.0
54803.0,STARLINK-5430,PAYLOAD,2024-01-07 06:14:48,15.08841855,0.0001505,53.218,1.1387,94.3729,265.7435,1.3349e-05,-7.6e-07,0.0,0 STARLINK-5430,1 54803U 22175AX  24007.26028854 -.00000076  00000-0  13349-4 0  9993,2 54803  53.2180   1.1387 0001505  94.3729 265.7435 15.08841855 60290,6917.875,95.437,540.781,538.699,0.0
54803.0,STARLINK-5430,PAYLOAD,2024-01-08 06:05:36,15.08838744,0.0001535,53.2183,356.6813,107.044,253.072,8.2694e-05,1.028e-05,0.0,0 STARLINK-5430,1 54803U 22175AX  24008.25389076  .00001028  00000-0  82694-4 0  9995,2 54803  53.2183 356.6813 0001535 107.0440 253.0720 15.08838744 58286,6917.884,95.438,540.811,538.687,0.0
54803.0,STARLINK-5430,PAYLOAD,2024-01-09 07:31:46,15.08841714,0.0001447,53.2182,351.9236,98.3852,261.7304,0.00012548,1.71e-05,0.0,0 STARLINK-5430,1 54803U 22175AX  24009.31373184  .00001710  00000-0  12548-3 0  9994,2 54803  53.2182 351.9236 0001447  98.3852 261.7304 15.08841714 58446,6917.875,95.437,540.741,538.739,0.0
54803.0,STARLINK-5430,PAYLOAD,2024-01-10 07:22:33,15.08851395,0.0001508,53.2174,347.459,106.4182,253.6976,0.0002531,3.744e-05,0.0,0 STARLINK-5430,1 54803U 22175AX  24010.30732673  .00003744  00000-0  25310-3 0  9997,2 54803  53.2174 347.4590 0001508 106.4182 253.6976 15.08851395 60753,6917.846,95.437,540.754,538.667,0.0
54803.0,STARLINK-5430,PAYLOAD,2024-01-11 04:02:34,15.0884266,0.000142,53.218,343.5974,77.79,282.3251,5.733e-05,6.25e-06,0.0,0 STARLINK-5430,1 54803U 22175AX  24011.16845300  .00000625  00000-0  57330-4 0  9997,2 54803  53.2180 343.5974 0001420  77.7900 282.3251 15.08842660 58728,6917.872,95.437,540.72,538.755,0.0
54803.0,STARLINK-5430,PAYLOAD,2024-01-11 05:37:57,15.08844585,0.0001444,53.2181,343.2975,82.5432,277.5724,8.1499e-05,1.009e-05,0.0,0 STARLINK-5430,1 54803U 22175AX  24011.23469155  .00001009  00000-0  81499-4 0  9995,2 54803  53.2181 343.2975 0001444  82.5432 277.5724 15.08844585 60897,6917.866,95.437,540.73,538.732,0.0
54803.0,STARLINK-5430,PAYLOAD,2024-01-11 21:31:49,15.08835154,0.0001418,53.2184,340.3195,111.4441,248.6702,-0.00011615,-2.136e-05,0.0,0 STARLINK-5430,1 54803U 22175AX  24011.89709647 -.00002136  00000-0 -11615-3 0  9996,2 54803  53.2184 340.3195 0001418 111.4441 248.6702 15.08835154 60993,6917.895,95.438,540.741,538.779,0.0
54803.0,STARLINK-5430,PAYLOAD,2024-01-12 07:04:07,15.08849436,0.0001492,53.2176,338.5388,99.4179,260.6982,0.00015628,2.201e-05,0.0,0 STARLINK-5430,1 54803U 22175AX  24012.29453279  .00002201  00000-0  15628-3 0  9997,2 54803  53.2176 338.5388 0001492  99.4179 260.6982 15.08849436 58890,6917.852,95.437,540.749,538.684,0.0
54803.0,STARLINK-5430,PAYLOAD,2024-01-12 21:22:36,15.08837177,0.0001855,53.2201,335.8601,121.1149,239.0025,0.00011053,1.471e-05,0.0,0 STARLINK-5430,1 54803U 22175AX  24012.89069875  .00001471  00000-0  11053-3 0  9994,2 54803  53.2201 335.8601 0001855 121.1149 239.0025 15.08837177 61149,6917.889,95.438,541.037,538.471,0.0
54803.0,STARLINK-5430,PAYLOAD,2024-01-13 03:44:08,15.08844583,0.0001752,53.2178,334.6773,79.1767,280.9422,0.00017635,2.52e-05,0.0,0 STARLINK-5430,1 54803U 22175AX  24013.15565772  .00002520  00000-0  17635-3 0  9999,2 54803  53.2178 334.6773 0001752  79.1767 280.9422 15.08844583 59022,6917.866,95.437,540.943,538.519,0.0
54803.0,STARLINK-5430,PAYLOAD,2024-01-14 03:34:55,15.08845572,0.0001421,53.2175,330.213,97.4508,262.6646,0.00022265,3.258e-05,0.0,0 STARLINK-5430,1 54803U 22175AX  24014.14925872  .00003258  00000-0  22265-3 0  9994,2 54803  53.2175 330.2130 0001421  97.4508 262.6646 15.08845572 59177,6917.863,95.437,540.711,538.745,0.0
54803.0,STARLINK-5430,PAYLOAD,2024-01-14 06:45:42,15.08849553,0.0001362,53.2173,329.6174,101.7006,258.4139,0.00031463,4.724e-05,0.0,0 STARLINK-5430,1 54803U 22175AX  24014.28173710  .00004724  00000-0  31463-3 0  9994,2 54803  53.2173 329.6174 0001362 101.7006 258.4139 15.08849553 61357,6917.851,95.437,540.658,538.774,0.0
54803.0,STARLINK-5430,PAYLOAD,2024-01-14 21:04:10,15.08845786,0.0001627,53.2177,326.9401,111.3309,248.7857,0.00020485,2.974e-05,0.0,0 STARLINK-5430,1 54803U 22175AX  24014.87789849  .00002974  00000-0  20485-3 0  9992,2 54803  53.2177 326.9401 0001627 111.3309 248.7857 15.08845786 61444,6917.863,95.437,540.853,538.602,0.0
54803.0,STARLINK-5430,PAYLOAD,2024-01-15 03:25:42,15.08858632,0.0001548,53.2181,325.7486,115.5279,244.5874,0.00080137,0.00012495,0.0,0 STARLINK-5430,1 54803U 22175AX  24015.14285340  .00012495  00000-0  80137-3 0  9999,2 54803  53.2181 325.7486 0001548 115.5279 244.5874 15.08858632 61484,6917.823,95.436,540.759,538.618,0.0
